#Pass ID: 20250114_225822_NOAA 20 (JPSS-1)
#Satellite: NOAA 20 (JPSS-1)
#Configuration: NOAA 20 (JPSS-1)
#Start time: 2025-01-14 22:58:27.157140

#LorettStation: 1.0.0 05.05.2024
#Station: Regia
#Location: 37.494653 lon 55.929028 lat
#TLE: 1 43013U 17073A   25013.87860412  .00000124  00000+0  79362-4 0  9993
#TLE: 2 43013  98.7286 314.4533 0001297  29.4151 330.7098 14.19537683370790

#Time	Az	El	Level	SNR
#Closed at: 2025-01-14 22:58:22.158075